STARLINK-37269          
1 68621U 26073V   26106.92030547 -.00259611  00000+0 -13870-2 0  9992
2 68621  97.2851 304.5623 0001480  76.2314 283.9119 15.80943711  1571
