{
  "norad_id": 68621,
  "name": "STARLINK-37269",
  "history": [
    {
      "epoch": "2026-04-16T22:05:14.392608Z",
      "apogee_km": 328.76348313744074,
      "perigee_km": 326.77786387531614,
      "latitude_deg": 6.446752843453678e-06,
      "longitude_deg": 128.19123715607688,
      "height_km": 330.70806282613995,
      "semi_major_axis_km": 6705.907673506378,
      "eccentricity": 0.00014805,
      "inclination_deg": 97.2851,
      "raan_deg": 304.5623,
      "arg_perigee_deg": 76.2314,
      "mean_anomaly_deg": 283.9119,
      "mean_motion_rev_day": 15.80943711
    }
  ]
}